{
    "links": {
        "self": "http://www.neowsapp.com/rest/v1/neo/3795030?api_key=iIulBulltgU6a56xZRHN4H3l9WmuAYTsLGpBGhQ2"
    },
    "id": "3795030",
    "neo_reference_id": "3795030",
    "name": "(2017 YN3)",
    "designation": "2017 YN3",
    "nasa_jpl_url": "http://ssd.jpl.nasa.gov/sbdb.cgi?sstr=3795030",
    "absolute_magnitude_h": 19.2,
    "estimated_diameter": {
        "kilometers": {
            "estimated_diameter_min": 0.3841978911,
            "estimated_diameter_max": 0.8590926012
        },
        "meters": {
            "estimated_diameter_min": 384.1978910643,
            "estimated_diameter_max": 859.0926012318
        },
        "miles": {
            "estimated_diameter_min": 0.2387294278,
            "estimated_diameter_max": 0.5338152287
        },
        "feet": {
            "estimated_diameter_min": 1260.4918089193,
            "estimated_diameter_max": 2818.5453698252
        }
    },
    "is_potentially_hazardous_asteroid": false,
    "close_approach_data": [
        {
            "close_approach_date": "2018-01-11",
            "close_approach_date_full": "2018-Jan-11 15:34",
            "epoch_date_close_approach": 1515684840000,
            "relative_velocity": {
                "kilometers_per_second": "33.6041690993",
                "kilometers_per_hour": "120975.0087575455",
                "miles_per_hour": "75169.1658582649"
            },
            "miss_distance": {
                "astronomical": "0.1038125768",
                "lunar": "40.3830923752",
                "kilometers": "15530140.368491416",
                "miles": "9649981.7493809008"
            },
            "orbiting_body": "Earth"
        },
        {
            "close_approach_date": "2020-05-26",
            "close_approach_date_full": "2020-May-26 01:21",
            "epoch_date_close_approach": 1590456060000,
            "relative_velocity": {
                "kilometers_per_second": "11.9293232683",
                "kilometers_per_hour": "42945.5637660568",
                "miles_per_hour": "26684.7032189701"
            },
            "miss_distance": {
                "astronomical": "1.2164884972",
                "lunar": "473.2140254108",
                "kilometers": "181984088.060620964",
                "miles": "113079668.7469547432"
            },
            "orbiting_body": "Juptr"
        }
    ],
    "orbital_data": {
        "orbit_id": "17",
        "orbit_determination_date": "2019-11-20 04:59:21",
        "first_observation_date": "2017-12-16",
        "last_observation_date": "2018-01-27",
        "data_arc_in_days": 42,
        "observations_used": 164,
        "orbit_uncertainty": "8",
        "minimum_orbit_intersection": ".103609",
        "jupiter_tisserand_invariant": "2.589",
        "epoch_osculation": "2458129.5",
        "eccentricity": ".5795677879301976",
        "semi_major_axis": "2.574077331379191",
        "inclination": "60.3196208832678",
        "ascending_node_longitude": "111.5532644585093",
        "orbital_period": "1508.449626643398",
        "perihelion_distance": "1.082225026470487",
        "perihelion_argument": "350.7903550012866",
        "aphelion_distance": "4.065929636287894",
        "perihelion_time": "2458121.993290218636",
        "mean_anomaly": "1.791518572154415",
        "mean_motion": ".23865563267172",
        "equinox": "J2000",
        "orbit_class": {
            "orbit_class_type": "AMO",
            "orbit_class_description": "Near-Earth asteroid orbits similar to that of 1221 Amor",
            "orbit_class_range": "1.017 AU < q (perihelion) < 1.3 AU"
        }
    },
    "is_sentry_object": false
}